GPS BIIF-7  (PRN 09)    
1 40105U 14045A   26062.35011831  .00000016  00000+0  00000+0 0  9997
2 40105  55.2804  92.6803 0031529 120.5063 239.8766  2.00551390 83952
GPS BIIF-8  (PRN 03)    
1 40294U 14068A   26062.22833175 -.00000074  00000+0  00000+0 0  9995
2 40294  56.9187  35.0371 0062748  68.0438 292.6092  2.00569742 83086
GPS BIIF-9  (PRN 26)    
1 40534U 15013A   26062.35961980 -.00000013  00000+0  00000+0 0  9996
2 40534  53.1865 208.5527 0108741  39.7842 320.9512  2.00557636 79708
GPS BIIF-10 (PRN 08)    
1 40730U 15033A   26062.52018166 -.00000008  00000+0  00000+0 0  9998
2 40730  54.0652 271.4414 0114474  28.9620 331.7017  2.00561598 77876
GPS BIIF-11 (PRN 10)    
1 41019U 15062A   26062.57900802 -.00000076  00000+0  00000+0 0  9998
2 41019  56.8923  34.8798 0111459 231.4880 127.4967  2.00567070 75719
GPS BIIF-12 (PRN 32)    
1 41328U 16007A   26063.16294155  .00000012  00000+0  00000+0 0  9993
2 41328  55.4554  93.6223 0095428 245.9980 113.0677  2.00556769 73733
GPS BIII-1  (PRN 04)    
1 43873U 18109A   26062.55311155  .00000019  00000+0  00000+0 0  9994
2 43873  55.6145  96.3528 0037895 198.2737 333.9980  2.00556711 52958
GPS BIII-2  (PRN 18)    
1 44506U 19056A   26063.18852645 -.00000099  00000+0  00000+0 0  9993
2 44506  55.6848 335.3179 0058029 198.1481 333.1946  2.00568296 47967
GPS BIII-3  (PRN 23)    
1 45854U 20041A   26063.05410240 -.00000081  00000+0  00000+0 0  9994
2 45854  56.6057  33.0224 0061381 205.2590 171.1803  2.00560640 41934
GPS BIII-4  (PRN 14)    
1 46826U 20078A   26062.80519442 -.00000007  00000+0  00000+0 0  9998
2 46826  54.0018 215.0499 0068191 204.2889 325.6484  2.00565522 39397
GPS BIII-5  (PRN 11)    
1 48859U 21054A   26062.49128030 -.00000100  00000+0  00000+0 0  9999
2 48859  55.2215 336.7106 0023864 232.0768 255.4185  2.00575580 34631
GPS BIII-6  (PRN 28)    
1 55268U 23009A   26062.25600392 -.00000002  00000+0  00000+0 0  9994
2 55268  55.1094 152.6829 0004614 335.9551  20.9517  2.00549255 23114
GPS BIII-7  (PRN 01)    
1 62339U 24242A   26059.41642148 -.00000100  00000+0  00000+0 0  9999
2 62339  54.8934 338.5934 0015681 355.9356 192.4850  2.00569355  9070
GPS BIII-8  (PRN 21)    
1 64202U 25116A   26062.39238152 -.00000077  00000+0  00000+0 0  9991
2 64202  55.1633  35.3874 0008474 325.1064  37.8908  2.00553198  5758
GPS BIII-9  (PRN 20)    
1 67588U 26017A   26062.99831483  .00000012  00000+0  00000+0 0  9992
2 67588  55.0184  92.9751 0001516  18.2827 341.7919  2.00560918429508
